[{"OBJECT_NAME":"ITASAT","OBJECT_ID":"2018-099AE","EPOCH":"2024-10-09T02:55:08.357664","MEAN_MOTION":15.06965063,"ECCENTRICITY":0.0015426,"INCLINATION":97.4951,"RA_OF_ASC_NODE":337.2721,"ARG_OF_PERICENTER":327.5897,"MEAN_ANOMALY":32.4382,"EPHEMERIS_TYPE":0,"CLASSIFICATION_TYPE":"U","NORAD_CAT_ID":43786,"ELEMENT_SET_NO":999,"REV_AT_EPOCH":31971,"BSTAR":0.0015495,"MEAN_MOTION_DOT":0.00023238,"MEAN_MOTION_DDOT":0},{"OBJECT_NAME":"JY1SAT (JO-97)","OBJECT_ID":"2018-099AX","EPOCH":"2024-10-09T03:44:00.191328","MEAN_MOTION":15.11268049,"ECCENTRICITY":0.0007522,"INCLINATION":97.5063,"RA_OF_ASC_NODE":339.473,"ARG_OF_PERICENTER":269.4306,"MEAN_ANOMALY":90.6062,"EPHEMERIS_TYPE":0,"CLASSIFICATION_TYPE":"U","NORAD_CAT_ID":43803,"ELEMENT_SET_NO":999,"REV_AT_EPOCH":31988,"BSTAR":0.0019648,"MEAN_MOTION_DOT":0.0003314,"MEAN_MOTION_DDOT":0},{"OBJECT_NAME":"UWE-4","OBJECT_ID":"2018-111E","EPOCH":"2024-10-09T11:17:12.427008","MEAN_MOTION":15.14020099,"ECCENTRICITY":0.001469,"INCLINATION":97.5983,"RA_OF_ASC_NODE":188.5865,"ARG_OF_PERICENTER":348.0183,"MEAN_ANOMALY":12.0697,"EPHEMERIS_TYPE":0,"CLASSIFICATION_TYPE":"U","NORAD_CAT_ID":43880,"ELEMENT_SET_NO":999,"REV_AT_EPOCH":31669,"BSTAR":0.0016096,"MEAN_MOTION_DOT":0.0002934,"MEAN_MOTION_DDOT":0},{"OBJECT_NAME":"DUCHIFAT-3","OBJECT_ID":"2019-089C","EPOCH":"2024-10-08T15:19:09.249600","MEAN_MOTION":15.22952039,"ECCENTRICITY":0.0008949,"INCLINATION":36.9549,"RA_OF_ASC_NODE":77.3521,"ARG_OF_PERICENTER":342.6714,"MEAN_ANOMALY":17.3729,"EPHEMERIS_TYPE":0,"CLASSIFICATION_TYPE":"U","NORAD_CAT_ID":44854,"ELEMENT_SET_NO":999,"REV_AT_EPOCH":26553,"BSTAR":0.0046213,"MEAN_MOTION_DOT":0.00112773,"MEAN_MOTION_DDOT":0},{"OBJECT_NAME":"TIANYAN 01","OBJECT_ID":"2019-093C","EPOCH":"2024-10-09T12:42:52.280928","MEAN_MOTION":14.84392574,"ECCENTRICITY":0.0013068,"INCLINATION":97.8186,"RA_OF_ASC_NODE":358.0961,"ARG_OF_PERICENTER":312.3325,"MEAN_ANOMALY":47.6782,"EPHEMERIS_TYPE":0,"CLASSIFICATION_TYPE":"U","NORAD_CAT_ID":44881,"ELEMENT_SET_NO":999,"REV_AT_EPOCH":26000,"BSTAR":0.0004319,"MEAN_MOTION_DOT":3.582e-5,"MEAN_MOTION_DDOT":0},{"OBJECT_NAME":"RS-44 & BREEZE-KM R/B","OBJECT_ID":"2019-096E","EPOCH":"2024-10-09T13:39:33.484320","MEAN_MOTION":12.79734915,"ECCENTRICITY":0.0218206,"INCLINATION":82.526,"RA_OF_ASC_NODE":28.7564,"ARG_OF_PERICENTER":143.6018,"MEAN_ANOMALY":218.0149,"EPHEMERIS_TYPE":0,"CLASSIFICATION_TYPE":"U","NORAD_CAT_ID":44909,"ELEMENT_SET_NO":999,"REV_AT_EPOCH":22360,"BSTAR":0.00015645,"MEAN_MOTION_DOT":5.2e-7,"MEAN_MOTION_DDOT":0},{"OBJECT_NAME":"SALSAT","OBJECT_ID":"2020-068K","EPOCH":"2024-10-09T10:53:32.765280","MEAN_MOTION":15.16082133,"ECCENTRICITY":0.0010553,"INCLINATION":97.8308,"RA_OF_ASC_NODE":245.9037,"ARG_OF_PERICENTER":285.3433,"MEAN_ANOMALY":74.6632,"EPHEMERIS_TYPE":0,"CLASSIFICATION_TYPE":"U","NORAD_CAT_ID":46495,"ELEMENT_SET_NO":999,"REV_AT_EPOCH":22160,"BSTAR":0.0010862,"MEAN_MOTION_DOT":0.00020911,"MEAN_MOTION_DDOT":0},{"OBJECT_NAME":"UVSQ-SAT","OBJECT_ID":"2021-006AB","EPOCH":"2024-10-09T03:40:30.775872","MEAN_MOTION":15.8588755,"ECCENTRICITY":0.0004159,"INCLINATION":97.298,"RA_OF_ASC_NODE":347.1089,"ARG_OF_PERICENTER":207.3842,"MEAN_ANOMALY":152.7211,"EPHEMERIS_TYPE":0,"CLASSIFICATION_TYPE":"U","NORAD_CAT_ID":47438,"ELEMENT_SET_NO":999,"REV_AT_EPOCH":20650,"BSTAR":0.0026243,"MEAN_MOTION_DOT":0.00689277,"MEAN_MOTION_DDOT":0},{"OBJECT_NAME":"LEDSAT","OBJECT_ID":"2021-073D","EPOCH":"2024-10-09T03:44:30.034752","MEAN_MOTION":15.31895801,"ECCENTRICITY":0.0016216,"INCLINATION":97.4246,"RA_OF_ASC_NODE":353.9329,"ARG_OF_PERICENTER":237.2623,"MEAN_ANOMALY":122.7056,"EPHEMERIS_TYPE":0,"CLASSIFICATION_TYPE":"U","NORAD_CAT_ID":49069,"ELEMENT_SET_NO":999,"REV_AT_EPOCH":17385,"BSTAR":0.0021919,"MEAN_MOTION_DOT":0.00068218,"MEAN_MOTION_DDOT":0},{"OBJECT_NAME":"XW-3 (CAS-9)","OBJECT_ID":"2021-131B","EPOCH":"2024-10-09T12:16:01.028064","MEAN_MOTION":14.40067548,"ECCENTRICITY":0.0005026,"INCLINATION":98.523,"RA_OF_ASC_NODE":8.0469,"ARG_OF_PERICENTER":136.5587,"MEAN_ANOMALY":223.5998,"EPHEMERIS_TYPE":0,"CLASSIFICATION_TYPE":"U","NORAD_CAT_ID":50466,"ELEMENT_SET_NO":999,"REV_AT_EPOCH":14645,"BSTAR":0.00091002,"MEAN_MOTION_DOT":2.827e-5,"MEAN_MOTION_DDOT":0},{"OBJECT_NAME":"GREENCUBE","OBJECT_ID":"2022-080B","EPOCH":"2024-10-07T23:09:18.716544","MEAN_MOTION":6.42557544,"ECCENTRICITY":0.0008243,"INCLINATION":70.1376,"RA_OF_ASC_NODE":153.3488,"ARG_OF_PERICENTER":81.836,"MEAN_ANOMALY":278.3235,"EPHEMERIS_TYPE":0,"CLASSIFICATION_TYPE":"U","NORAD_CAT_ID":53106,"ELEMENT_SET_NO":999,"REV_AT_EPOCH":5251,"BSTAR":0,"MEAN_MOTION_DOT":-3.0e-8,"MEAN_MOTION_DDOT":0},{"OBJECT_NAME":"CAS-5A (FO-118)","OBJECT_ID":"2022-167C","EPOCH":"2024-10-09T12:44:50.597952","MEAN_MOTION":15.42919353,"ECCENTRICITY":0.0006582,"INCLINATION":97.6161,"RA_OF_ASC_NODE":72.0293,"ARG_OF_PERICENTER":103.692,"MEAN_ANOMALY":256.506,"EPHEMERIS_TYPE":0,"CLASSIFICATION_TYPE":"U","NORAD_CAT_ID":54684,"ELEMENT_SET_NO":999,"REV_AT_EPOCH":10184,"BSTAR":0.0020017,"MEAN_MOTION_DOT":0.00088847,"MEAN_MOTION_DDOT":0},{"OBJECT_NAME":"STRATOSAT-TK 1 (RS52S)","OBJECT_ID":"2023-091B","EPOCH":"2024-10-09T13:12:54.198720","MEAN_MOTION":15.18794686,"ECCENTRICITY":0.0014831,"INCLINATION":97.5966,"RA_OF_ASC_NODE":336.663,"ARG_OF_PERICENTER":87.521,"MEAN_ANOMALY":272.7721,"EPHEMERIS_TYPE":0,"CLASSIFICATION_TYPE":"U","NORAD_CAT_ID":57167,"ELEMENT_SET_NO":999,"REV_AT_EPOCH":7087,"BSTAR":0.0020322,"MEAN_MOTION_DOT":0.00042533,"MEAN_MOTION_DDOT":0},{"OBJECT_NAME":"UMKA 1 (RS40S)","OBJECT_ID":"2023-091G","EPOCH":"2024-10-09T13:12:32.222016","MEAN_MOTION":15.10009061,"ECCENTRICITY":0.0017682,"INCLINATION":97.5982,"RA_OF_ASC_NODE":334.5248,"ARG_OF_PERICENTER":91.8772,"MEAN_ANOMALY":268.4482,"EPHEMERIS_TYPE":0,"CLASSIFICATION_TYPE":"U","NORAD_CAT_ID":57172,"ELEMENT_SET_NO":999,"REV_AT_EPOCH":7073,"BSTAR":0.00087298,"MEAN_MOTION_DOT":0.00014192,"MEAN_MOTION_DDOT":0},{"OBJECT_NAME":"CUBESX-HSE 3 (RS42S)","OBJECT_ID":"2023-091N","EPOCH":"2024-10-09T12:05:07.322208","MEAN_MOTION":15.12412517,"ECCENTRICITY":0.0017478,"INCLINATION":97.6012,"RA_OF_ASC_NODE":335.2685,"ARG_OF_PERICENTER":85.9341,"MEAN_ANOMALY":274.3887,"EPHEMERIS_TYPE":0,"CLASSIFICATION_TYPE":"U","NORAD_CAT_ID":57178,"ELEMENT_SET_NO":999,"REV_AT_EPOCH":7076,"BSTAR":0.0012131,"MEAN_MOTION_DOT":0.00021124,"MEAN_MOTION_DDOT":0},{"OBJECT_NAME":"MONITOR-4 (RS57S)","OBJECT_ID":"2023-091S","EPOCH":"2024-10-09T12:50:30.238944","MEAN_MOTION":15.11667793,"ECCENTRICITY":0.0018223,"INCLINATION":97.6003,"RA_OF_ASC_NODE":335.0018,"ARG_OF_PERICENTER":87.335,"MEAN_ANOMALY":272.9965,"EPHEMERIS_TYPE":0,"CLASSIFICATION_TYPE":"U","NORAD_CAT_ID":57182,"ELEMENT_SET_NO":999,"REV_AT_EPOCH":7075,"BSTAR":0.0010378,"MEAN_MOTION_DOT":0.00017689,"MEAN_MOTION_DDOT":0},{"OBJECT_NAME":"MONITOR-2 (RS39S)","OBJECT_ID":"2023-091U","EPOCH":"2024-10-09T13:59:20.689440","MEAN_MOTION":15.09769003,"ECCENTRICITY":0.0015092,"INCLINATION":97.6004,"RA_OF_ASC_NODE":334.9729,"ARG_OF_PERICENTER":82.1306,"MEAN_ANOMALY":278.1635,"EPHEMERIS_TYPE":0,"CLASSIFICATION_TYPE":"U","NORAD_CAT_ID":57184,"ELEMENT_SET_NO":999,"REV_AT_EPOCH":7075,"BSTAR":0.00073519,"MEAN_MOTION_DOT":0.00011847,"MEAN_MOTION_DDOT":0}]
