ITASAT                  
1 43786U 18099AE  24283.12162451  .00023238  00000+0  15495-2 0  9999
2 43786  97.4951 337.2721 0015426 327.5897  32.4382 15.06965063319713
JY1SAT (JO-97)          
1 43803U 18099AX  24283.15555777  .00033140  00000+0  19648-2 0  9996
2 43803  97.5063 339.4730 0007522 269.4306  90.6062 15.11268049319884
UWE-4                   
1 43880U 18111E   24283.47028272  .00029340  00000+0  16096-2 0  9997
2 43880  97.5983 188.5865 0014690 348.0183  12.0697 15.14020099316695
DUCHIFAT-3              
1 44854U 19089C   24282.63830150  .00112773  00000+0  46213-2 0  9994
2 44854  36.9549  77.3521 0008949 342.6714  17.3729 15.22952039265533
TIANYAN 01              
1 44881U 19093C   24283.52977177  .00003582  00000+0  43190-3 0  9998
2 44881  97.8186 358.0961 0013068 312.3325  47.6782 14.84392574260004
RS-44 & BREEZE-KM R/B   
1 44909U 19096E   24283.56913755  .00000052  00000+0  15645-3 0  9991
2 44909  82.5260  28.7564 0218206 143.6018 218.0149 12.79734915223601
SALSAT                  
1 46495U 20068K   24283.45385145  .00020911  00000+0  10862-2 0  9999
2 46495  97.8308 245.9037 0010553 285.3433  74.6632 15.16082133221606
UVSQ-SAT                
1 47438U 21006AB  24283.15313398  .00689277  00000+0  26243-2 0  9994
2 47438  97.2980 347.1089 0004159 207.3842 152.7211 15.85887550206504
LEDSAT                  
1 49069U 21073D   24283.15590318  .00068218  00000+0  21919-2 0  9990
2 49069  97.4246 353.9329 0016216 237.2623 122.7056 15.31895801173855
XW-3 (CAS-9)            
1 50466U 21131B   24283.51112301  .00002827  00000+0  91002-3 0  9995
2 50466  98.5230   8.0469 0005026 136.5587 223.5998 14.40067548146452
GREENCUBE               
1 53106U 22080B   24281.96479996 -.00000003  00000+0  00000+0 0  9995
2 53106  70.1376 153.3488 0008243  81.8360 278.3235  6.42557544 52511
CAS-5A (FO-118)         
1 54684U 22167C   24283.53114118  .00088847  00000+0  20017-2 0  9994
2 54684  97.6161  72.0293 0006582 103.6920 256.5060 15.42919353101844
STRATOSAT-TK 1 (RS52S)  
1 57167U 23091B   24283.55062730  .00042533  00000+0  20322-2 0  9995
2 57167  97.5966 336.6630 0014831  87.5210 272.7721 15.18794686 70872
UMKA 1 (RS40S)          
1 57172U 23091G   24283.55037294  .00014192  00000+0  87298-3 0  9994
2 57172  97.5982 334.5248 0017682  91.8772 268.4482 15.10009061 70735
CUBESX-HSE 3 (RS42S)    
1 57178U 23091N   24283.50355697  .00021124  00000+0  12131-2 0  9991
2 57178  97.6012 335.2685 0017478  85.9341 274.3887 15.12412517 70762
MONITOR-4 (RS57S)       
1 57182U 23091S   24283.53507221  .00017689  00000+0  10378-2 0  9993
2 57182  97.6003 335.0018 0018223  87.3350 272.9965 15.11667793 70757
MONITOR-2 (RS39S)       
1 57184U 23091U   24283.58287835  .00011847  00000+0  73519-3 0  9993
2 57184  97.6004 334.9729 0015092  82.1306 278.1635 15.09769003 70758
